HST                     
1 20580U 90037B   26068.15977042  .00009063  00000+0  30023-3 0  9999
2 20580  28.4717  43.6133 0001837 120.9992 239.0785 15.29473555773239
STARLINK-32358          
1 61531U 24183Y   26068.49923829  .00000539  00000+0  30326-4 0  9996
2 61531  53.1606 143.3115 0001112  95.3145 264.7983 15.30187982 79626
